[{"CCSDS_OMM_VERS": "2.0", "COMMENT": "GENERATED VIA SPACE-TRACK.ORG API", "CREATION_DATE": "2021-12-06T02:57:56", "ORIGINATOR": "18 SPCS", "OBJECT_NAME": "DELTA 2 R/B(1)", "OBJECT_ID": "1992-009B", "CENTER_NAME": "EARTH", "REF_FRAME": "TEME", "TIME_SYSTEM": "UTC", "MEAN_ELEMENT_THEORY": "SGP4", "EPOCH": "2021-12-05T14:54:12.735936", "MEAN_MOTION": "14.83506607", "ECCENTRICITY": "0.00468740", "INCLINATION": "19.9973", "RA_OF_ASC_NODE": "314.6361", "ARG_OF_PERICENTER": "77.3276", "MEAN_ANOMALY": "283.2379", "EPHEMERIS_TYPE": "0", "CLASSIFICATION_TYPE": "U", "NORAD_CAT_ID": "21891", "ELEMENT_SET_NO": "999", "REV_AT_EPOCH": "58802", "BSTAR": "0.00004666200000", "MEAN_MOTION_DOT": "0.00000806", "MEAN_MOTION_DDOT": "0.0000000000000", "SEMIMAJOR_AXIS": "6996.414", "PERIOD": "97.067", "APOAPSIS": "651.074", "PERIAPSIS": "585.484", "OBJECT_TYPE": "ROCKET BODY", "RCS_SIZE": "LARGE", "COUNTRY_CODE": "US", "LAUNCH_DATE": "1992-02-23", "SITE": "AFETR", "DECAY_DATE": null, "FILE": "3233515", "GP_ID": "191154484", "TLE_LINE0": "0 DELTA 2 R/B(1)", "TLE_LINE1": "1 21891U 92009B   21339.62098074  .00000806  00000-0  46662-4 0  9997", "TLE_LINE2": "2 21891  19.9973 314.6361 0046874  77.3276 283.2379 14.83506607588023"}, {"CCSDS_OMM_VERS": "2.0", "COMMENT": "GENERATED VIA SPACE-TRACK.ORG API", "CREATION_DATE": "2021-12-06T02:57:56", "ORIGINATOR": "18 SPCS", "OBJECT_NAME": "ARIANE 3 DEB", "OBJECT_ID": "1984-114E", "CENTER_NAME": "EARTH", "REF_FRAME": "TEME", "TIME_SYSTEM": "UTC", "MEAN_ELEMENT_THEORY": "SGP4", "EPOCH": "2021-12-05T18:43:50.674368", "MEAN_MOTION": "10.51688937", "ECCENTRICITY": "0.24412030", "INCLINATION": "6.7547", "RA_OF_ASC_NODE": "338.3683", "ARG_OF_PERICENTER": "4.8887", "MEAN_ANOMALY": "172.9549", "EPHEMERIS_TYPE": "0", "CLASSIFICATION_TYPE": "U", "NORAD_CAT_ID": "27740", "ELEMENT_SET_NO": "999", "REV_AT_EPOCH": "88728", "BSTAR": "0.00126620000000", "MEAN_MOTION_DOT": "0.00041237", "MEAN_MOTION_DDOT": "-0.0000064406000", "SEMIMAJOR_AXIS": "8799.884", "PERIOD": "136.923", "APOAPSIS": "4569.980", "PERIAPSIS": "273.519", "OBJECT_TYPE": "DEBRIS", "RCS_SIZE": "LARGE", "COUNTRY_CODE": "FR", "LAUNCH_DATE": "1984-11-10", "SITE": "FRGUI", "DECAY_DATE": null, "FILE": "3233515", "GP_ID": "191156010", "TLE_LINE0": "0 ARIANE 3 DEB", "TLE_LINE1": "1 27740U 84114E   21339.78044762  .00041237 -64406-5  12662-2 0  9996", "TLE_LINE2": "2 27740   6.7547 338.3683 2441203   4.8887 172.9549 10.51688937887284"}, {"CCSDS_OMM_VERS": "2.0", "COMMENT": "GENERATED VIA SPACE-TRACK.ORG API", "CREATION_DATE": "2021-12-06T07:06:20", "ORIGINATOR": "18 SPCS", "OBJECT_NAME": "ARIANE 5 R/B", "OBJECT_ID": "2006-020D", "CENTER_NAME": "EARTH", "REF_FRAME": "TEME", "TIME_SYSTEM": "UTC", "MEAN_ELEMENT_THEORY": "SGP4", "EPOCH": "2021-12-06T01:48:01.957824", "MEAN_MOTION": "4.54287821", "ECCENTRICITY": "0.56747690", "INCLINATION": "6.8801", "RA_OF_ASC_NODE": "277.6253", "ARG_OF_PERICENTER": "306.0990", "MEAN_ANOMALY": "13.7640", "EPHEMERIS_TYPE": "0", "CLASSIFICATION_TYPE": "U", "NORAD_CAT_ID": "29165", "ELEMENT_SET_NO": "999", "REV_AT_EPOCH": "16975", "BSTAR": "0.00052761000000", "MEAN_MOTION_DOT": "0.00003265", "MEAN_MOTION_DDOT": "0.0000000000000", "SEMIMAJOR_AXIS": "15399.777", "PERIOD": "316.980", "APOAPSIS": "17760.660", "PERIAPSIS": "282.624", "OBJECT_TYPE": "ROCKET BODY", "RCS_SIZE": "LARGE", "COUNTRY_CODE": "FR", "LAUNCH_DATE": "2006-05-27", "SITE": "FRGUI", "DECAY_DATE": null, "FILE": "3233719", "GP_ID": "191177272", "TLE_LINE0": "0 ARIANE 5 R/B", "TLE_LINE1": "1 29165U 06020D   21340.07502266  .00003265  00000-0  52761-3 0  9999", "TLE_LINE2": "2 29165   6.8801 277.6253 5674769 306.0990  13.7640  4.54287821169751"}, {"CCSDS_OMM_VERS": "2.0", "COMMENT": "GENERATED VIA SPACE-TRACK.ORG API", "CREATION_DATE": "2021-12-06T02:57:56", "ORIGINATOR": "18 SPCS", "OBJECT_NAME": "PSLV R/B", "OBJECT_ID": "2007-001E", "CENTER_NAME": "EARTH", "REF_FRAME": "TEME", "TIME_SYSTEM": "UTC", "MEAN_ELEMENT_THEORY": "SGP4", "EPOCH": "2021-12-05T22:54:47.217888", "MEAN_MOTION": "14.85932782", "ECCENTRICITY": "0.00255440", "INCLINATION": "97.9818", "RA_OF_ASC_NODE": "315.6027", "ARG_OF_PERICENTER": "145.0498", "MEAN_ANOMALY": "215.2400", "EPHEMERIS_TYPE": "0", "CLASSIFICATION_TYPE": "U", "NORAD_CAT_ID": "29713", "ELEMENT_SET_NO": "999", "REV_AT_EPOCH": "80635", "BSTAR": "0.00005035000000", "MEAN_MOTION_DOT": "0.00000385", "MEAN_MOTION_DDOT": "0.0000000000000", "SEMIMAJOR_AXIS": "6988.797", "PERIOD": "96.909", "APOAPSIS": "628.514", "PERIAPSIS": "592.809", "OBJECT_TYPE": "ROCKET BODY", "RCS_SIZE": "LARGE", "COUNTRY_CODE": "IND", "LAUNCH_DATE": "2007-01-10", "SITE": "SRI", "DECAY_DATE": null, "FILE": "3233515", "GP_ID": "191156876", "TLE_LINE0": "0 PSLV R/B", "TLE_LINE1": "1 29713U 07001E   21339.95471317  .00000385  00000-0  50350-4 0  9998", "TLE_LINE2": "2 29713  97.9818 315.6027 0025544 145.0498 215.2400 14.85932782806356"}, {"CCSDS_OMM_VERS": "2.0", "COMMENT": "GENERATED VIA SPACE-TRACK.ORG API", "CREATION_DATE": "2021-12-05T20:11:25", "ORIGINATOR": "18 SPCS", "OBJECT_NAME": "H-2A R/B", "OBJECT_ID": "2016-012E", "CENTER_NAME": "EARTH", "REF_FRAME": "TEME", "TIME_SYSTEM": "UTC", "MEAN_ELEMENT_THEORY": "SGP4", "EPOCH": "2021-12-05T12:34:51.539232", "MEAN_MOTION": "15.05768842", "ECCENTRICITY": "0.00176420", "INCLINATION": "30.6268", "RA_OF_ASC_NODE": "27.3195", "ARG_OF_PERICENTER": "48.7971", "MEAN_ANOMALY": "311.4178", "EPHEMERIS_TYPE": "0", "CLASSIFICATION_TYPE": "U", "NORAD_CAT_ID": "41341", "ELEMENT_SET_NO": "999", "REV_AT_EPOCH": "31927", "BSTAR": "0.00007103600000", "MEAN_MOTION_DOT": "0.00001161", "MEAN_MOTION_DDOT": "0.0000000000000", "SEMIMAJOR_AXIS": "6927.284", "PERIOD": "95.632", "APOAPSIS": "561.370", "PERIAPSIS": "536.928", "OBJECT_TYPE": "ROCKET BODY", "RCS_SIZE": "LARGE", "COUNTRY_CODE": "JPN", "LAUNCH_DATE": "2016-02-17", "SITE": "TNSTA", "DECAY_DATE": null, "FILE": "3233179", "GP_ID": "191135257", "TLE_LINE0": "0 H-2A R/B", "TLE_LINE1": "1 41341U 16012E   21339.52420763  .00001161  00000-0  71036-4 0  9990", "TLE_LINE2": "2 41341  30.6268  27.3195 0017642  48.7971 311.4178 15.05768842319276"}]